HIERARCHY
ROOT Hips
{
    OFFSET 0.00 0.00 0.00
    CHANNELS 6 Xposition Yposition Zposition Zrotation Xrotation Yrotation
    JOINT Spine
    {
        OFFSET 0.00 5.00 0.00
        CHANNELS 3 Zrotation Xrotation Yrotation
        JOINT Chest
        {
            OFFSET 0.00 8.00 0.00
            CHANNELS 3 Zrotation Xrotation Yrotation
            End Site
            {
                OFFSET 0.00 6.00 0.00
            }
        }
    }
    JOINT LeftUpLeg
    {
        OFFSET 3.90 0.00 0.00
        CHANNELS 3 Zrotation Xrotation Yrotation
        JOINT LeftLeg
        {
            OFFSET 0.00 -18.00 0.00
            CHANNELS 3 Zrotation Xrotation Yrotation
            JOINT LeftFoot
            {
                OFFSET 0.00 -17.00 0.00
                CHANNELS 3 Zrotation Xrotation Yrotation
                End Site
                {
                    OFFSET 0.00 -3.00 6.00
                }
            }
        }
    }
    JOINT RightUpLeg
    {
        OFFSET -3.90 0.00 0.00
        CHANNELS 3 Zrotation Xrotation Yrotation
        JOINT RightLeg
        {
            OFFSET 0.00 -18.00 0.00
            CHANNELS 3 Zrotation Xrotation Yrotation
            JOINT RightFoot
            {
                OFFSET 0.00 -17.00 0.00
                CHANNELS 3 Zrotation Xrotation Yrotation
                End Site
                {
                    OFFSET 0.00 -3.00 6.00
                }
            }
        }
    }
}
MOTION
Frames: 30
Frame Time: 0.033333
0.00 39.00 0.00 0.00 0.00 0.00 0.00 0.00 0.00 0.00 0.00 0.00 0.00 0.00 0.00 0.00 0.00 0.00 0.00 0.00 0.00 0.00 0.00 0.00 0.00 0.00 0.00 0.00 0.00 0.00 0.00 0.00 0.00
1.20 39.05 0.00 2.00 0.00 0.00 1.00 0.00 0.00 0.50 0.00 0.00 5.00 0.00 0.00 3.00 0.00 0.00 2.00 0.00 0.00 -5.00 0.00 0.00 -3.00 0.00 0.00 -2.00 0.00 0.00 0.00 0.00 0.00
2.40 39.10 0.00 4.00 0.00 0.00 2.00 0.00 0.00 1.00 0.00 0.00 10.00 0.00 0.00 6.00 0.00 0.00 4.00 0.00 0.00 -10.00 0.00 0.00 -6.00 0.00 0.00 -4.00 0.00 0.00 0.00 0.00 0.00
3.60 39.15 0.00 6.00 0.00 0.00 3.00 0.00 0.00 1.50 0.00 0.00 15.00 0.00 0.00 9.00 0.00 0.00 6.00 0.00 0.00 -15.00 0.00 0.00 -9.00 0.00 0.00 -6.00 0.00 0.00 0.00 0.00 0.00
4.80 39.20 0.00 8.00 0.00 0.00 4.00 0.00 0.00 2.00 0.00 0.00 20.00 0.00 0.00 12.00 0.00 0.00 8.00 0.00 0.00 -20.00 0.00 0.00 -12.00 0.00 0.00 -8.00 0.00 0.00 0.00 0.00 0.00
6.00 39.25 0.00 10.00 0.00 0.00 5.00 0.00 0.00 2.50 0.00 0.00 25.00 0.00 0.00 15.00 0.00 0.00 10.00 0.00 0.00 -25.00 0.00 0.00 -15.00 0.00 0.00 -10.00 0.00 0.00 0.00 0.00 0.00
7.20 39.30 0.00 12.00 0.00 0.00 6.00 0.00 0.00 3.00 0.00 0.00 30.00 0.00 0.00 18.00 0.00 0.00 12.00 0.00 0.00 -30.00 0.00 0.00 -18.00 0.00 0.00 -12.00 0.00 0.00 0.00 0.00 0.00
8.40 39.35 0.00 14.00 0.00 0.00 7.00 0.00 0.00 3.50 0.00 0.00 35.00 0.00 0.00 21.00 0.00 0.00 14.00 0.00 0.00 -35.00 0.00 0.00 -21.00 0.00 0.00 -14.00 0.00 0.00 0.00 0.00 0.00
9.60 39.40 0.00 16.00 0.00 0.00 8.00 0.00 0.00 4.00 0.00 0.00 40.00 0.00 0.00 24.00 0.00 0.00 16.00 0.00 0.00 -40.00 0.00 0.00 -24.00 0.00 0.00 -16.00 0.00 0.00 0.00 0.00 0.00
10.80 39.45 0.00 18.00 0.00 0.00 9.00 0.00 0.00 4.50 0.00 0.00 45.00 0.00 0.00 27.00 0.00 0.00 18.00 0.00 0.00 -45.00 0.00 0.00 -27.00 0.00 0.00 -18.00 0.00 0.00 0.00 0.00 0.00
12.00 39.50 0.00 20.00 0.00 0.00 10.00 0.00 0.00 5.00 0.00 0.00 50.00 0.00 0.00 30.00 0.00 0.00 20.00 0.00 0.00 -50.00 0.00 0.00 -30.00 0.00 0.00 -20.00 0.00 0.00 0.00 0.00 0.00
13.20 39.45 0.00 18.00 0.00 0.00 9.00 0.00 0.00 4.50 0.00 0.00 45.00 0.00 0.00 27.00 0.00 0.00 18.00 0.00 0.00 -45.00 0.00 0.00 -27.00 0.00 0.00 -18.00 0.00 0.00 0.00 0.00 0.00
14.40 39.40 0.00 16.00 0.00 0.00 8.00 0.00 0.00 4.00 0.00 0.00 40.00 0.00 0.00 24.00 0.00 0.00 16.00 0.00 0.00 -40.00 0.00 0.00 -24.00 0.00 0.00 -16.00 0.00 0.00 0.00 0.00 0.00
15.60 39.35 0.00 14.00 0.00 0.00 7.00 0.00 0.00 3.50 0.00 0.00 35.00 0.00 0.00 21.00 0.00 0.00 14.00 0.00 0.00 -35.00 0.00 0.00 -21.00 0.00 0.00 -14.00 0.00 0.00 0.00 0.00 0.00
16.80 39.30 0.00 12.00 0.00 0.00 6.00 0.00 0.00 3.00 0.00 0.00 30.00 0.00 0.00 18.00 0.00 0.00 12.00 0.00 0.00 -30.00 0.00 0.00 -18.00 0.00 0.00 -12.00 0.00 0.00 0.00 0.00 0.00
18.00 39.25 0.00 10.00 0.00 0.00 5.00 0.00 0.00 2.50 0.00 0.00 25.00 0.00 0.00 15.00 0.00 0.00 10.00 0.00 0.00 -25.00 0.00 0.00 -15.00 0.00 0.00 -10.00 0.00 0.00 0.00 0.00 0.00
19.20 39.20 0.00 8.00 0.00 0.00 4.00 0.00 0.00 2.00 0.00 0.00 20.00 0.00 0.00 12.00 0.00 0.00 8.00 0.00 0.00 -20.00 0.00 0.00 -12.00 0.00 0.00 -8.00 0.00 0.00 0.00 0.00 0.00
20.40 39.15 0.00 6.00 0.00 0.00 3.00 0.00 0.00 1.50 0.00 0.00 15.00 0.00 0.00 9.00 0.00 0.00 6.00 0.00 0.00 -15.00 0.00 0.00 -9.00 0.00 0.00 -6.00 0.00 0.00 0.00 0.00 0.00
21.60 39.10 0.00 4.00 0.00 0.00 2.00 0.00 0.00 1.00 0.00 0.00 10.00 0.00 0.00 6.00 0.00 0.00 4.00 0.00 0.00 -10.00 0.00 0.00 -6.00 0.00 0.00 -4.00 0.00 0.00 0.00 0.00 0.00
22.80 39.05 0.00 2.00 0.00 0.00 1.00 0.00 0.00 0.50 0.00 0.00 5.00 0.00 0.00 3.00 0.00 0.00 2.00 0.00 0.00 -5.00 0.00 0.00 -3.00 0.00 0.00 -2.00 0.00 0.00 0.00 0.00 0.00
24.00 39.00 0.00 0.00 0.00 0.00 0.00 0.00 0.00 0.00 0.00 0.00 0.00 0.00 0.00 0.00 0.00 0.00 0.00 0.00 0.00 0.00 0.00 0.00 0.00 0.00 0.00 0.00 0.00 0.00 0.00 0.00 0.00
24.00 39.00 0.00 0.00 0.00 0.00 0.00 0.00 0.00 0.00 0.00 0.00 0.00 0.00 0.00 0.00 0.00 0.00 0.00 0.00 0.00 0.00 0.00 0.00 0.00 0.00 0.00 0.00 0.00 0.00 0.00 0.00 0.00
24.00 39.00 0.00 0.00 0.00 0.00 0.00 0.00 0.00 0.00 0.00 0.00 0.00 0.00 0.00 0.00 0.00 0.00 0.00 0.00 0.00 0.00 0.00 0.00 0.00 0.00 0.00 0.00 0.00 0.00 0.00 0.00 0.00
24.00 39.00 0.00 0.00 0.00 0.00 0.00 0.00 0.00 0.00 0.00 0.00 0.00 0.00 0.00 0.00 0.00 0.00 0.00 0.00 0.00 0.00 0.00 0.00 0.00 0.00 0.00 0.00 0.00 0.00 0.00 0.00 0.00
24.00 39.00 0.00 0.00 0.00 0.00 0.00 0.00 0.00 0.00 0.00 0.00 0.00 0.00 0.00 0.00 0.00 0.00 0.00 0.00 0.00 0.00 0.00 0.00 0.00 0.00 0.00 0.00 0.00 0.00 0.00 0.00 0.00
24.00 39.00 0.00 0.00 0.00 0.00 0.00 0.00 0.00 0.00 0.00 0.00 0.00 0.00 0.00 0.00 0.00 0.00 0.00 0.00 0.00 0.00 0.00 0.00 0.00 0.00 0.00 0.00 0.00 0.00 0.00 0.00 0.00
24.00 39.00 0.00 0.00 0.00 0.00 0.00 0.00 0.00 0.00 0.00 0.00 0.00 0.00 0.00 0.00 0.00 0.00 0.00 0.00 0.00 0.00 0.00 0.00 0.00 0.00 0.00 0.00 0.00 0.00 0.00 0.00 0.00
24.00 39.00 0.00 0.00 0.00 0.00 0.00 0.00 0.00 0.00 0.00 0.00 0.00 0.00 0.00 0.00 0.00 0.00 0.00 0.00 0.00 0.00 0.00 0.00 0.00 0.00 0.00 0.00 0.00 0.00 0.00 0.00 0.00
24.00 39.00 0.00 0.00 0.00 0.00 0.00 0.00 0.00 0.00 0.00 0.00 0.00 0.00 0.00 0.00 0.00 0.00 0.00 0.00 0.00 0.00 0.00 0.00 0.00 0.00 0.00 0.00 0.00 0.00 0.00 0.00 0.00
24.00 39.00 0.00 0.00 0.00 0.00 0.00 0.00 0.00 0.00 0.00 0.00 0.00 0.00 0.00 0.00 0.00 0.00 0.00 0.00 0.00 0.00 0.00 0.00 0.00 0.00 0.00 0.00 0.00 0.00 0.00 0.00 0.00
